ICEYE-X53               
1 64584U 25135BJ  26194.82510104  .00000050  00000+0  86430-5 0  9996
2 64584  97.7361 311.4901 0001863 166.0137 194.1139 15.00886918 58077
ICEYE-X65               
1 66300U 25248H   26194.45076286  .00001812  00000+0  13215-3 0  9992
2 66300  45.4057 356.0731 0005372 190.0935 169.9839 15.07921769 39487
ICEYE-X66               
1 66301U 25248J   26194.51609848  .00001922  00000+0  13470-3 0  9991
2 66301  45.4024 354.8280 0005030 186.3508 173.7311 15.09170286 39482
ICEYE-X67               
1 66302U 25248K   26194.47456764  .00001671  00000+0  11920-3 0  9993
2 66302  45.4059 354.6245 0006457 185.9763 174.1043 15.09152706 39497
ICEYE-X58               
1 66751U 25276CP  26194.76271087  .00001469  00000+0  77025-4 0  9991
2 66751  97.4196 267.6707 0002075 221.0465 139.0612 15.17302536 34442
ICEYE-X59               
1 66752U 25276CQ  26194.74561663  .00002773  00000+0  22318-3 0  9995
2 66752  97.4389 264.9077 0000908 141.5278 218.6011 15.00745054 34252
ICEYE-X60               
1 66753U 25276CR  26193.74930697  .00003164  00000+0  19247-3 0  9994
2 66753  97.4200 265.6603 0001480 353.8857   6.2355 15.11136424 34221
ICEYE-X61               
1 66754U 25276CS  26194.78211852  .00001709  00000+0  85865-4 0  9998
2 66754  97.4195 267.7765 0001941 222.2084 137.9001 15.18603834 34456
ICEYE-X62               
1 66755U 25276CT  26194.63506093  .00001072  00000+0  69543-4 0  9995
2 66755  97.4194 266.0153 0000640 265.3989  94.7167 15.10128811 34324
ICEYE-X63               
1 67372U 26004K   26194.50356136  .00000468  00000+0  56453-4 0  9992
2 67372  97.8013 192.7327 0005487  56.3423 303.8316 14.88347063 27213
ICEYE-X64               
1 67373U 26004L   26194.88809183  .00000675  00000+0  79438-4 0  9997
2 67373  97.8026 193.0310 0007311  57.5256 302.6666 14.87985299 27267
ICEYE-X71               
1 68494U 26067CG  26194.75855463  .00001446  00000+0  14894-3 0  9990
2 68494  97.7625 152.5879 0001124 352.5947   7.5254 14.91788805 15683
ICEYE-X73               
1 68496U 26067CJ  26194.85383478  .00001173  00000+0  12017-3 0  9997
2 68496  97.7620 152.7665 0001386 150.7205 209.4092 14.92345285 15708
ICEYE-X75               
1 68497U 26067CK  26194.85816101  .00000365  00000+0  41319-4 0  9992
2 68497  97.7605 152.7385 0001294 146.8802 213.2498 14.92172422 15702
ICEYE-X74               
1 68500U 26067CN  26194.75768964  .00001434  00000+0  14775-3 0  9992
2 68500  97.7632 152.5971 0000957 349.7105  10.4094 14.91789008 15680
ICEYE-X76               
1 68502U 26067CQ  26194.82061757  .00000600  00000+0  65095-4 0  9994
2 68502  97.7639 152.6771 0000646 330.5750  29.5432 14.91748923 15696
