{"fetched_at":"2026-07-14T06:34:49.463Z","source":"https://celestrak.org/NORAD/elements/gp.php?NAME=ICEYE&FORMAT=JSON","constellation":"iceye","records":[{"OBJECT_NAME":"ICEYE-X53","OBJECT_ID":"2025-135BJ","EPOCH":"2026-07-13T19:48:08.729856","CLASSIFICATION_TYPE":"U","MEAN_MOTION":15.00886918,"ECCENTRICITY":0.0001863,"INCLINATION":97.7361,"RA_OF_ASC_NODE":311.4901,"ARG_OF_PERICENTER":166.0137,"MEAN_ANOMALY":194.1139,"EPHEMERIS_TYPE":0,"NORAD_CAT_ID":64584,"ELEMENT_SET_NO":999,"REV_AT_EPOCH":5807,"BSTAR":0.000008643,"MEAN_MOTION_DOT":5e-7,"MEAN_MOTION_DDOT":0},{"OBJECT_NAME":"ICEYE-X65","OBJECT_ID":"2025-248H","EPOCH":"2026-07-13T10:49:05.911104","CLASSIFICATION_TYPE":"U","MEAN_MOTION":15.07921769,"ECCENTRICITY":0.00053722,"INCLINATION":45.4057,"RA_OF_ASC_NODE":356.0731,"ARG_OF_PERICENTER":190.0935,"MEAN_ANOMALY":169.9839,"EPHEMERIS_TYPE":0,"NORAD_CAT_ID":66300,"ELEMENT_SET_NO":999,"REV_AT_EPOCH":3948,"BSTAR":0.00013214783,"MEAN_MOTION_DOT":0.00001812,"MEAN_MOTION_DDOT":0},{"OBJECT_NAME":"ICEYE-X66","OBJECT_ID":"2025-248J","EPOCH":"2026-07-13T12:23:10.908672","CLASSIFICATION_TYPE":"U","MEAN_MOTION":15.09170286,"ECCENTRICITY":0.00050307,"INCLINATION":45.4024,"RA_OF_ASC_NODE":354.828,"ARG_OF_PERICENTER":186.3508,"MEAN_ANOMALY":173.7311,"EPHEMERIS_TYPE":0,"NORAD_CAT_ID":66301,"ELEMENT_SET_NO":999,"REV_AT_EPOCH":3948,"BSTAR":0.0001346979,"MEAN_MOTION_DOT":0.00001922,"MEAN_MOTION_DDOT":0},{"OBJECT_NAME":"ICEYE-X67","OBJECT_ID":"2025-248K","EPOCH":"2026-07-13T11:23:22.644096","CLASSIFICATION_TYPE":"U","MEAN_MOTION":15.09152706,"ECCENTRICITY":0.00064571,"INCLINATION":45.4059,"RA_OF_ASC_NODE":354.6245,"ARG_OF_PERICENTER":185.9763,"MEAN_ANOMALY":174.1043,"EPHEMERIS_TYPE":0,"NORAD_CAT_ID":66302,"ELEMENT_SET_NO":999,"REV_AT_EPOCH":3949,"BSTAR":0.00011919792,"MEAN_MOTION_DOT":0.00001671,"MEAN_MOTION_DDOT":0},{"OBJECT_NAME":"ICEYE-X58","OBJECT_ID":"2025-276CP","EPOCH":"2026-07-13T18:18:18.219168","CLASSIFICATION_TYPE":"U","MEAN_MOTION":15.17302536,"ECCENTRICITY":0.0002075,"INCLINATION":97.4196,"RA_OF_ASC_NODE":267.6707,"ARG_OF_PERICENTER":221.0465,"MEAN_ANOMALY":139.0612,"EPHEMERIS_TYPE":0,"NORAD_CAT_ID":66751,"ELEMENT_SET_NO":999,"REV_AT_EPOCH":3444,"BSTAR":0.000077025,"MEAN_MOTION_DOT":0.00001469,"MEAN_MOTION_DDOT":0},{"OBJECT_NAME":"ICEYE-X59","OBJECT_ID":"2025-276CQ","EPOCH":"2026-07-13T17:53:41.276832","CLASSIFICATION_TYPE":"U","MEAN_MOTION":15.00745054,"ECCENTRICITY":0.0000908,"INCLINATION":97.4389,"RA_OF_ASC_NODE":264.9077,"ARG_OF_PERICENTER":141.5278,"MEAN_ANOMALY":218.6011,"EPHEMERIS_TYPE":0,"NORAD_CAT_ID":66752,"ELEMENT_SET_NO":999,"REV_AT_EPOCH":3425,"BSTAR":0.00022318,"MEAN_MOTION_DOT":0.00002773,"MEAN_MOTION_DDOT":0},{"OBJECT_NAME":"ICEYE-X60","OBJECT_ID":"2025-276CR","EPOCH":"2026-07-12T17:59:00.122208","CLASSIFICATION_TYPE":"U","MEAN_MOTION":15.11136424,"ECCENTRICITY":0.00014809,"INCLINATION":97.42,"RA_OF_ASC_NODE":265.6603,"ARG_OF_PERICENTER":353.8857,"MEAN_ANOMALY":6.2355,"EPHEMERIS_TYPE":0,"NORAD_CAT_ID":66753,"ELEMENT_SET_NO":999,"REV_AT_EPOCH":3422,"BSTAR":0.00019247041,"MEAN_MOTION_DOT":0.00003164,"MEAN_MOTION_DDOT":0},{"OBJECT_NAME":"ICEYE-X61","OBJECT_ID":"2025-276CS","EPOCH":"2026-07-13T18:46:15.040128","CLASSIFICATION_TYPE":"U","MEAN_MOTION":15.18603834,"ECCENTRICITY":0.0001941,"INCLINATION":97.4195,"RA_OF_ASC_NODE":267.7765,"ARG_OF_PERICENTER":222.2084,"MEAN_ANOMALY":137.9001,"EPHEMERIS_TYPE":0,"NORAD_CAT_ID":66754,"ELEMENT_SET_NO":999,"REV_AT_EPOCH":3445,"BSTAR":0.000085865,"MEAN_MOTION_DOT":0.00001709,"MEAN_MOTION_DDOT":0},{"OBJECT_NAME":"ICEYE-X62","OBJECT_ID":"2025-276CT","EPOCH":"2026-07-13T15:14:29.264352","CLASSIFICATION_TYPE":"U","MEAN_MOTION":15.10128811,"ECCENTRICITY":0.000064,"INCLINATION":97.4194,"RA_OF_ASC_NODE":266.0153,"ARG_OF_PERICENTER":265.3989,"MEAN_ANOMALY":94.7167,"EPHEMERIS_TYPE":0,"NORAD_CAT_ID":66755,"ELEMENT_SET_NO":999,"REV_AT_EPOCH":3432,"BSTAR":0.000069543,"MEAN_MOTION_DOT":0.00001072,"MEAN_MOTION_DDOT":0},{"OBJECT_NAME":"ICEYE-X63","OBJECT_ID":"2026-004K","EPOCH":"2026-07-13T12:05:07.701504","CLASSIFICATION_TYPE":"U","MEAN_MOTION":14.88347063,"ECCENTRICITY":0.00054878,"INCLINATION":97.8013,"RA_OF_ASC_NODE":192.7327,"ARG_OF_PERICENTER":56.3423,"MEAN_ANOMALY":303.8316,"EPHEMERIS_TYPE":0,"NORAD_CAT_ID":67372,"ELEMENT_SET_NO":999,"REV_AT_EPOCH":2721,"BSTAR":0.00005645334,"MEAN_MOTION_DOT":0.00000468,"MEAN_MOTION_DDOT":0},{"OBJECT_NAME":"ICEYE-X64","OBJECT_ID":"2026-004L","EPOCH":"2026-07-13T21:18:51.134112","CLASSIFICATION_TYPE":"U","MEAN_MOTION":14.87985299,"ECCENTRICITY":0.0007311,"INCLINATION":97.8026,"RA_OF_ASC_NODE":193.031,"ARG_OF_PERICENTER":57.5256,"MEAN_ANOMALY":302.6666,"EPHEMERIS_TYPE":0,"NORAD_CAT_ID":67373,"ELEMENT_SET_NO":999,"REV_AT_EPOCH":2726,"BSTAR":0.000079438,"MEAN_MOTION_DOT":0.00000675,"MEAN_MOTION_DDOT":0},{"OBJECT_NAME":"ICEYE-X71","OBJECT_ID":"2026-067CG","EPOCH":"2026-07-13T18:12:19.120032","CLASSIFICATION_TYPE":"U","MEAN_MOTION":14.91788805,"ECCENTRICITY":0.0001124,"INCLINATION":97.7625,"RA_OF_ASC_NODE":152.5879,"ARG_OF_PERICENTER":352.5947,"MEAN_ANOMALY":7.5254,"EPHEMERIS_TYPE":0,"NORAD_CAT_ID":68494,"ELEMENT_SET_NO":999,"REV_AT_EPOCH":1568,"BSTAR":0.00014894,"MEAN_MOTION_DOT":0.00001446,"MEAN_MOTION_DDOT":0},{"OBJECT_NAME":"ICEYE-X73","OBJECT_ID":"2026-067CJ","EPOCH":"2026-07-13T20:29:31.324992","CLASSIFICATION_TYPE":"U","MEAN_MOTION":14.92345285,"ECCENTRICITY":0.0001386,"INCLINATION":97.762,"RA_OF_ASC_NODE":152.7665,"ARG_OF_PERICENTER":150.7205,"MEAN_ANOMALY":209.4092,"EPHEMERIS_TYPE":0,"NORAD_CAT_ID":68496,"ELEMENT_SET_NO":999,"REV_AT_EPOCH":1570,"BSTAR":0.00012017,"MEAN_MOTION_DOT":0.00001173,"MEAN_MOTION_DDOT":0},{"OBJECT_NAME":"ICEYE-X75","OBJECT_ID":"2026-067CK","EPOCH":"2026-07-13T20:35:45.111264","CLASSIFICATION_TYPE":"U","MEAN_MOTION":14.92172422,"ECCENTRICITY":0.0001294,"INCLINATION":97.7605,"RA_OF_ASC_NODE":152.7385,"ARG_OF_PERICENTER":146.8802,"MEAN_ANOMALY":213.2498,"EPHEMERIS_TYPE":0,"NORAD_CAT_ID":68497,"ELEMENT_SET_NO":999,"REV_AT_EPOCH":1570,"BSTAR":0.000041319,"MEAN_MOTION_DOT":0.00000365,"MEAN_MOTION_DDOT":0},{"OBJECT_NAME":"ICEYE-X74","OBJECT_ID":"2026-067CN","EPOCH":"2026-07-13T18:11:04.384896","CLASSIFICATION_TYPE":"U","MEAN_MOTION":14.91789008,"ECCENTRICITY":0.0000957,"INCLINATION":97.7632,"RA_OF_ASC_NODE":152.5971,"ARG_OF_PERICENTER":349.7105,"MEAN_ANOMALY":10.4094,"EPHEMERIS_TYPE":0,"NORAD_CAT_ID":68500,"ELEMENT_SET_NO":999,"REV_AT_EPOCH":1568,"BSTAR":0.00014775,"MEAN_MOTION_DOT":0.00001434,"MEAN_MOTION_DDOT":0},{"OBJECT_NAME":"ICEYE-X76","OBJECT_ID":"2026-067CQ","EPOCH":"2026-07-13T19:41:41.358048","CLASSIFICATION_TYPE":"U","MEAN_MOTION":14.91748923,"ECCENTRICITY":0.0000646,"INCLINATION":97.7639,"RA_OF_ASC_NODE":152.6771,"ARG_OF_PERICENTER":330.575,"MEAN_ANOMALY":29.5432,"EPHEMERIS_TYPE":0,"NORAD_CAT_ID":68502,"ELEMENT_SET_NO":999,"REV_AT_EPOCH":1569,"BSTAR":0.000065095,"MEAN_MOTION_DOT":0.000006,"MEAN_MOTION_DDOT":0}]}
